ORBCOMM-X               
1 21576U 91050C   24261.46295445  .00001943  00000+0  59635-3 0  9997
2 21576  98.3813 327.1736 0002499 299.0377  61.0563 14.42746185742786
ORBCOMM FM01            
1 23545U 95017A   24261.63811644  .00044430  00000+0  54443-2 0  9995
2 23545  69.9679  30.5052 0004944 354.2778   5.8316 14.82903466571996
ORBCOMM FM02            
1 23546U 95017B   24261.56166285  .00046670  00000+0  57557-2 0  9999
2 23546  69.9680  50.3133 0006448 355.7535   4.3560 14.82612100571624
ORBCOMM FM08            
1 25112U 97084A   24261.34769407  .00013955  00000+0  41106-2 0  9990
2 25112  45.0128 235.6780 0008844 312.5415  47.4688 14.43582447401913
ORBCOMM FM10            
1 25113U 97084B   24261.36422329  .00012362  00000+0  36570-2 0  9992
2 25113  45.0139 237.5747 0006445 289.7362  70.2793 14.43458364577062
ORBCOMM FM11            
1 25114U 97084C   24261.39535001  .00009796  00000+0  29181-2 0  9995
2 25114  45.0125 237.6165 0007241 289.5747  70.4321 14.43285707402035
ORBCOMM FM12            
1 25115U 97084D   24261.42788858  .00003590  00000+0  10983-2 0  9996
2 25115  45.0134 237.2033 0006219 290.5274  69.4909 14.43243373401837
ORBCOMM FM09            
1 25116U 97084E   24261.44253627  .00011236  00000+0  33459-2 0  9999
2 25116  45.0136 237.8611 0007104 277.1909  82.8134 14.43202826402049
